OBJECT B                
1 51825U 22019B   25259.62327363  .00026616  00000+0  57163-3 0  9995
2 51825  97.3778 337.4807 0009660  59.3071 300.9128 15.44621101197164
